[{"OBJECT_NAME":"STARLINK-6144","OBJECT_ID":"2023-083U","EPOCH":"2026-03-09T08:42:20.615904","MEAN_MOTION":15.02523379,"ECCENTRICITY":0.00014695,"INCLINATION":43.0031,"RA_OF_ASC_NODE":83.3416,"ARG_OF_PERICENTER":275.7731,"MEAN_ANOMALY":84.2944,"EPHEMERIS_TYPE":0,"CLASSIFICATION_TYPE":"U","NORAD_CAT_ID":56894,"ELEMENT_SET_NO":999,"REV_AT_EPOCH":15174,"BSTAR":-0.00013382279,"MEAN_MOTION_DOT":-2.01e-5,"MEAN_MOTION_DDOT":0},{"OBJECT_NAME":"NOAA 16 DEB","OBJECT_ID":"2000-055BZ","EPOCH":"2026-03-09T09:57:46.840608","MEAN_MOTION":15.04968987,"ECCENTRICITY":0.00133628,"INCLINATION":98.8453,"RA_OF_ASC_NODE":286.076,"ARG_OF_PERICENTER":194.204,"MEAN_ANOMALY":165.8809,"EPHEMERIS_TYPE":0,"CLASSIFICATION_TYPE":"U","NORAD_CAT_ID":41142,"ELEMENT_SET_NO":999,"REV_AT_EPOCH":53866,"BSTAR":0.0051237154,"MEAN_MOTION_DOT":0.00073426,"MEAN_MOTION_DDOT":0}]
